CCSDS_OEM_VERS = 2.0  
CREATION_DATE  = 2026-02-27T09:30:05
ORIGINATOR     = ESOC/OPS-GFA                            
 
 



META_START
OBJECT_NAME          = LISA                                    
OBJECT_ID            = -1000                                   
CENTER_NAME          = SUN                     
REF_FRAME            = EME2000 
TIME_SYSTEM          = TCB
START_TIME           = 2036-12-23T00:00:30.346418            
STOP_TIME            = 2047-09-09T13:05:22.587857            
INTERPOLATION        = HERMITE                                 
INTERPOLATION_DEGREE = 7                                       
META_STOP

2040-10-21T02:12:15.504046     1.46767343401667923e+08    2.37188999601175264e+07    8.93414277034414932e+06   -5.06909931552702631e+00    2.70473833485494346e+01    1.17540059426299912e+01   -5.89539354715367032e-06   -9.52564355893869180e-07   -3.58785855437093351e-07
2040-10-21T22:16:27.137855     1.46385718070018500e+08    2.56705630086390600e+07    9.78242275378780439e+06   -5.49449932670362085e+00    2.69757265704794627e+01    1.17268519859646769e+01   -5.87991054567523587e-06   -1.03093360116362852e-06   -3.92850157882167623e-07
2040-10-22T18:20:38.771665     1.45973398407138139e+08    2.76168443841380179e+07    1.06286519838714190e+07   -5.91873548059459864e+00    2.68984154636183561e+01    1.16972398700332114e+01   -5.86317738382286270e-06   -1.10907917844916713e-06   -4.26829008572424885e-07
2040-10-23T14:24:50.405474     1.45530471728341430e+08    2.95573361296124160e+07    1.14726530752362236e+07   -6.34171758672644525e+00    2.68154668061452668e+01    1.16651760375419684e+01   -5.84519786075550069e-06   -1.18698399416050214e-06   -4.60714973133257117e-07
2040-10-24T10:29:02.039283     1.45057031873137474e+08    3.14916315554600693e+07    1.23142491318191048e+07   -6.76335573889299546e+00    2.67268986094484049e+01    1.16306674676566004e+01   -5.82597604891152364e-06   -1.26463100722867377e-06   -4.94500636972148996e-07
2040-10-25T06:33:13.673093     1.44553179191043556e+08    3.34193253332421966e+07    1.31532637875728868e+07   -7.18356033544201900e+00    2.66327301139511654e+01    1.15937216744117109e+01   -5.80551630815214238e-06   -1.34200323931449192e-06   -5.28178609621805926e-07
2040-10-26T02:37:25.306902     1.44019020513308614e+08    3.53400135809129104e+07    1.39895212436253577e+07   -7.60224210039862491e+00    2.65329817842628479e+01    1.15543467048316479e+01   -5.78382329477897174e-06   -1.41908378329446130e-06   -5.61741528392782237e-07
2040-10-26T22:41:36.940711     1.43454669115466624e+08    3.72532939427114502e+07    1.48228463032146841e+07   -8.01931210505570569e+00    2.64276753037784040e+01    1.15125511368122950e+01   -5.76090196544805630e-06   -1.49585581002818666e-06   -5.95182061337288174e-07
2040-10-27T18:45:48.574520     1.42860244675638437e+08    3.91587656669141799e+07    1.56530644057389498e+07   -8.43468178966166882e+00    2.63168335688514787e+01    1.14683440768136879e+01   -5.73675757594393756e-06   -1.57230257340018631e-06   -6.28492909521420991e-07
2040-10-28T14:50:00.208330     1.42235873233501703e+08    4.10560296846433133e+07    1.64800016612575147e+07   -8.84826298483572415e+00    2.62004806826651837e+01    1.14217351574132895e+01   -5.71139567486452359e-06   -1.64840741364675843e-06   -6.61666808609986260e-07
2040-10-29T10:54:11.842139     1.41581687154848278e+08    4.29446886929292828e+07    1.73034848867819533e+07   -9.25996793234094007e+00    2.60786419489249255e+01    1.13727345347698048e+01   -5.68482209217511926e-06   -1.72415375895686974e-06   -6.94696529759512211e-07
2040-10-30T06:58:23.475948     1.40897825106647938e+08    4.48243472452237457e+07    1.81233416456940584e+07   -9.66970930484534996e+00    2.59513438654976518e+01    1.13213528860473396e+01   -5.65704292261039043e-06   -1.79952512534888278e-06   -7.27574879820422414e-07
2040-10-31T03:02:35.109759     1.40184432047538221e+08    4.66946118525603637e+07    1.89394002916290686e+07   -1.00774002243013356e+01    2.58186141181218574e+01    1.12676014068497601e+01   -5.62806450404663291e-06   -1.87450511483894837e-06   -7.60294700854095286e-07
2040-10-31T23:06:46.743567     1.39441659238659054e+08    4.85550910985597670e+07    1.97514900181612149e+07   -1.04829542785735175e+01    2.56804815743127826e+01    1.12114918087151150e+01   -5.59789339067535394e-06   -1.94907741187507610e-06   -7.92848868955160599e-07
2040-11-01T19:10:58.377377     1.38669664279752076e+08    5.04053957714765519e+07    2.05594409156298190e+07   -1.08862855359454453e+01    2.55369762775870583e+01    1.11530363167199322e+01   -5.56653632102807313e-06   -2.02322577804593976e-06   -8.25230292382414133e-07
2040-11-02T15:17:25.704394     1.37867079253112912e+08    5.22485838021127433e+07    2.13645890906256624e+07   -1.12880595013191005e+01    2.53878448857527346e+01    1.10921313124922971e+01   -5.53393867084053912e-06   -2.09707227272255807e-06   -8.57492302657080591e-07
2040-11-03T11:23:53.031413     1.37035497330486923e+08    5.40807835395519584e+07    2.21652441556146368e+07   -1.16874312131364935e+01    2.52333844135843464e+01    1.10288976904313412e+01   -5.50016539608241178e-06   -2.17046106257531093e-06   -8.89566853857153254e-07
2040-11-04T07:30:20.358430     1.36175095497798622e+08    5.59016104650485367e+07    2.29612380564815290e+07   -1.20843158533440196e+01    2.50736285686727527e+01    1.09633492719083208e+01   -5.46522432760346316e-06   -2.24337625798886749e-06   -9.21446996739717993e-07
2040-11-05T03:36:47.685449     1.35286056816033691e+08    5.77106824941665754e+07    2.37524037377455048e+07   -1.24786291780259351e+01    2.49086122058284190e+01    1.08955003800863519e+01   -5.42912350149442483e-06   -2.31580205495112224e-06   -9.53125817736954324e-07
2040-11-05T23:43:15.012467     1.34368570417916626e+08    5.95076200998619348e+07    2.45385751958495453e+07   -1.28702875330547322e+01    2.47383713202551299e+01    1.08253658370774115e+01   -5.39187118013236844e-06   -2.38772275198151898e-06   -9.84596445963039811e-07
2040-11-06T19:49:42.339484     1.33422831484829426e+08    6.12920464158566818e+07    2.53195875241049081e+07   -1.32592078710937429e+01    2.45629430395950763e+01    1.07529609606318743e+01   -5.35347586860579266e-06   -2.45912276441528827e-06   -1.01585205913426715e-06
2040-11-07T15:56:09.666503     1.32449041208009064e+08    6.30635873244922459e+07    2.60952769510646015e+07   -1.36453077696216845e+01    2.43823656150354786e+01    1.06783015604387952e+01   -5.31394632652582172e-06   -2.52998663604792950e-06   -1.04688588840421253e-06
2040-11-08T12:02:36.993521     1.31447406738065824e+08    6.48218715332295969e+07    2.68654808740921468e+07   -1.40285054496448431e+01    2.41966784116680316e+01    1.06014039341155080e+01   -5.27329157521162569e-06   -2.60029904813479920e-06   -1.07769122211180856e-06
2040-11-09T08:09:04.320538     1.30418141126866013e+08    6.65665306439647749e+07    2.76300378898917958e+07   -1.44087197947626038e+01    2.40059218982923070e+01    1.05222848629651526e+01   -5.23152090027096734e-06   -2.67004482575480094e-06   -1.10826140844607087e-06
2040-11-10T04:15:31.647557     1.29361463265821129e+08    6.82971992193278968e+07    2.83887878237662762e+07   -1.47858703702520735e+01    2.38101376368543782e+01    1.04409616075807001e+01   -5.18864384954195529e-06   -2.73920894152355583e-06   -1.13858985702138265e-06
2040-11-11T00:21:58.974574     1.28277597824626714e+08    7.00135148501342237e+07    2.91415717593684420e+07   -1.51598774418374695e+01    2.36093682717118512e+01    1.03574519033740700e+01   -5.14467022644301967e-06   -2.80777651667707449e-06   -1.16867003937211447e-06
2040-11-11T20:28:26.301593     1.27166775194493204e+08    7.17151182281551659e+07    2.98882320707128607e+07   -1.55306619938100354e+01    2.34036575189165390e+01    1.02717739561089463e+01   -5.09961007869289813e-06   -2.87573281950653035e-06   -1.19849548835843870e-06
2040-11-12T16:34:53.628611     1.26029231439912006e+08    7.34016532283778191e+07    3.06286124582135826e+07   -1.58981457461641646e+01    2.31930501557059578e+01    1.01839464375158641e+01   -5.05347368238041522e-06   -2.94306326114132434e-06   -1.22805979648235265e-06
2040-11-13T12:41:20.955628     1.24865208262999117e+08    7.50727670049213171e+07    3.13625579905143008e+07   -1.62622511704154817e+01    2.29775920103949112e+01    1.00939884810681519e+01   -5.00627152149776247e-06   -3.00975338872173504e-06   -1.25735661313067524e-06
2040-11-14T08:47:48.282647     1.23674952984459162e+08    7.67281101047780663e+07    3.20899151538769528e+07   -1.66229015037665739e+01    2.27573299528582851e+01    1.00019196779973445e+01   -4.95801426278106694e-06   -3.07578887590008456e-06   -1.28637964072020557e-06
2040-11-15T04:54:15.609664     1.22458718545212746e+08    7.83673366035481691e+07    3.28105319108953103e+07   -1.69800207612860525e+01    2.25323118857963678e+01    9.90776007362663691e+00   -4.90871272590250218e-06   -3.14115551068995309e-06   -1.31512262975276193e-06
2040-11-16T01:04:50.367712     1.21212474321448147e+08    7.99956222781594545e+07    3.35266853029539399e+07   -1.73347358584355256e+01    2.23017934734824301e+01    9.81119770382694867e+00   -4.85820469226160528e-06   -3.20605946777150739e-06   -1.34367630044583425e-06
2040-11-16T21:15:25.125760     1.19940599606890470e+08    8.16069937184861451e+07    3.42357498510949314e+07   -1.76857448937075006e+01    2.20665861672817236e+01    9.71257199532239923e+00   -4.80666817363807726e-06   -3.27026204003534859e-06   -1.37193570748295191e-06
2040-11-17T17:25:59.883808     1.18643366306297496e+08    8.32011122403610647e+07    3.49375764797441587e+07   -1.80329735927967469e+01    2.18267414099562735e+01    9.61190454127446436e+00   -4.75411502243353391e-06   -3.33374953876076970e-06   -1.39989481806215716e-06
